PROGRESS-MS 23          
1 56740U 23071A   23172.50173489  .00015733  00000+0  28063-3 0  9997
2 56740  51.6410 307.1433 0004553  65.1884 294.9578 15.50243745402456
2023-072A               
1 56743U 23072A   23172.58902083  .00006036  00000+0  40356-3 0  9994
2 56743  97.5429 359.3705 0008148 195.6216 164.4761 15.07300608  4098
SNIPE 4                 
1 56744U 23072B   23172.58775026  .00006522  00000+0  43445-3 0  9992
2 56744  97.5514 359.4026 0008220 196.5954 163.5006 15.07412356  4097
SNIPE 2                 
1 56745U 23072C   23172.58536347  .00006441  00000+0  42752-3 0  9994
2 56745  97.5523 359.4086 0008386 200.0383 160.0517 15.07547322  4095
2023-072D               
1 56746U 23072D   23172.58253637  .00007064  00000+0  46617-3 0  9999
2 56746  97.5524 359.4124 0008620 203.5613 156.5221 15.07725246  4090
2023-072E               
1 56747U 23072E   23172.58004442  .00006435  00000+0  42363-3 0  9993
2 56747  97.5524 359.4157 0009227 205.9593 154.1174 15.07844483  4090
2023-072F               
1 56748U 23072F   23172.57942554  .00005227  00000+0  34479-3 0  9995
2 56748  97.5318 359.3456 0009303 207.1369 152.9374 15.07853357  4091
2023-072G               
1 56749U 23072G   23172.57667558  .00006350  00000+0  41597-3 0  9991
2 56749  97.5326 359.3517 0009671 210.3807 149.6862 15.08030759  4099
2023-072H               
1 56750U 23072H   23171.72799972  .00004319  00000+0  23532-3 0  9997
2 56750  97.5377 358.8055 0017732 186.5229 173.5775 15.14811288  3984
ELECTRON KICK STAGE R/B 
1 56752U 23073A   23172.01545433  .00011078  00000+0  71788-3 0  9990
2 56752  32.7375  43.8994 0011480 100.0734 260.1231 15.07060282  3908
TROPICS-03              
1 56753U 23073B   23172.01925953  .00009755  00000+0  63689-3 0  9990
2 56753  32.7377  43.9360 0010156 112.1392 248.0356 15.06788085  3889
TROPICS-07              
1 56754U 23073C   23172.00018283  .00010199  00000+0  64500-3 0  9996
2 56754  32.7379  43.7759 0014538 103.1702 257.0590 15.07914978  3901
ELECTRON R/B            
1 56755U 23073D   23172.12685696  .00016418  00000+0  10257-2 0  9997
2 56755  35.4653  48.9431 0023463  49.0866 311.1880 15.08471224  3926
COSMOS 2569             
1 56756U 23074A   23172.57416052  .00005263  00000+0  25610-3 0  9992
2 56756  97.4375   6.9538 0001478  89.7747 270.3656 15.18814602  3906
ARABSAT-7B (BADR-8)     
1 56757U 23075A   23170.96622053 -.00000236  00000+0  00000+0 0  9993
2 56757  17.3977 144.1118 7632183 184.9807 156.2196  0.99464882   261
FALCON 9 R/B            
1 56758U 23075B   23170.80574087 -.00000127  00000+0  57885-3 0  9996
2 56758  27.8739 144.0781 8175021 186.5456 143.2611  1.20343645   278
IRNSS-1J (NVS-01)       
1 56759U 23076A   23171.67583377 -.00000328  00000+0  00000+0 0  9992
2 56759   4.9299 273.5138 0004459 357.1500  10.7694  1.00269421   168
GSLV R/B                
1 56760U 23076B   23172.46679802  .00164817  27864-6  47623-2 0  9993
2 56760  19.1659 261.1975 7487889 193.3957 121.4459  2.06608478   485
SHENZHOU-16 (SZ-16)     
1 56761U 23077A   23172.32771504  .00000141  00000+0  58996-5 0  9995
2 56761  41.4746 130.7235 0004813  98.5802 261.5581 15.59339219122484
STARLINK-6197           
1 56767U 23078A   23172.58681760  .00040808  00000+0  33936-3 0  9993
2 56767  70.0006 353.3998 0004010 276.4572  83.6167 15.69931354  3396
STARLINK-6198           
1 56768U 23078B   23172.58629074  .00024956  00000+0  20860-3 0  9992
2 56768  70.0002 353.4004 0003865 277.1989  82.8767 15.69933773  3393
STARLINK-5978           
1 56769U 23078C   23172.58660595  .00021487  00000+0  17992-3 0  9994
2 56769  70.0001 353.4011 0004066 276.2856  83.7877 15.69932514  3392
STARLINK-6342           
1 56770U 23078D   23172.58671349  .00043022  00000+0  35785-3 0  9994
2 56770  70.0000 353.4015 0004283 282.3318  77.7398 15.69911459  3395
STARLINK-6339           
1 56771U 23078E   23172.58618448  .00024937  00000+0  20842-3 0  9998
2 56771  70.0007 353.3981 0003837 274.3479  85.7278 15.69936513  3391
STARLINK-6275           
1 56772U 23078F   23172.58650047  .00017385  00000+0  14599-3 0  9991
2 56772  70.0001 353.4007 0004244 275.5973  84.4738 15.69930700  3390
STARLINK-6296           
1 56773U 23078G   23172.58608008  .00040326  00000+0  33537-3 0  9996
2 56773  70.0008 353.3968 0003970 277.4782  82.5963 15.69933208  3392
STARLINK-6190           
1 56774U 23078H   23172.58639552  .00046622  00000+0  38713-3 0  9991
2 56774  70.0003 353.3992 0004123 275.5555  84.5170 15.69934486  3394
STARLINK-6292           
1 56775U 23078J   23172.58555230  .00022826  00000+0  19099-3 0  9998
2 56775  70.0007 353.3955 0003875 275.3739  84.7015 15.69934138  3397
STARLINK-6274           
1 56776U 23078K   23172.58597411  .00016225  00000+0  13639-3 0  9996
2 56776  70.0002 353.3983 0003864 272.8738  87.2015 15.69930718  3391
STARLINK-5582           
1 56777U 23078L   23172.58334491 -.00088633  00000+0 -74138-3 0  9999
2 56777  70.0010 353.3989 0003813 271.5269  77.8474 15.69978718  1301
STARLINK-6304           
1 56778U 23078M   23172.58586868  .00017803  00000+0  14945-3 0  9996
2 56778  70.0001 353.3988 0003892 278.4191  81.6563 15.69932629  3392
STARLINK-6231           
1 56779U 23078N   23172.58471008  .00037916  00000+0  31560-3 0  9995
2 56779  70.0008 353.3909 0003912 275.8259  84.2490 15.69927470  3398
STARLINK-5963           
1 56780U 23078P   23172.58513088  .00020269  00000+0  16985-3 0  9999
2 56780  70.0006 353.3940 0003827 274.6103  85.4656 15.69933487  3395
STARLINK-5989           
1 56781U 23078Q   23172.58428795  .00020859  00000+0  17473-3 0  9998
2 56781  70.0011 353.3887 0003665 270.9110  89.1666 15.69933612  3391
STARLINK-6352           
1 56782U 23078R   23172.58576306  .00012111  00000+0  10232-3 0  9999
2 56782  70.0004 353.3971 0004043 272.7108  87.3625 15.69926465  3399
STARLINK-6357           
1 56783U 23078S   23172.58334491 -.00098330  00000+0 -82345-3 0  9990
2 56783  70.0010 353.4008 0003801 268.5276  79.6551 15.69984086  1303
STARLINK-6354           
1 56784U 23078T   23172.58565815  .00023145  00000+0  19363-3 0  9997
2 56784  70.0003 353.3974 0003754 279.3580  80.7192 15.69934338  3392
STARLINK-5931           
1 56785U 23078U   23172.58449941  .00025218  00000+0  21075-3 0  9995
2 56785  70.0007 353.3915 0003770 272.3387  87.7377 15.69935732  4086
STARLINK-6341           
1 56786U 23078V   23172.58534155  .00022949  00000+0  19198-3 0  9999
2 56786  70.0002 353.3965 0003876 278.4365  81.6391 15.69936870  3393
STARLINK-6326           
1 56787U 23078W   23172.58481535  .00046020  00000+0  38222-3 0  9998
2 56787  70.0009 353.3912 0003899 275.9745  84.1007 15.69933199  3395
STARLINK-6336           
1 56788U 23078X   23172.58502509  .00026918  00000+0  22475-3 0  9991
2 56788  70.0005 353.3945 0003998 277.2776  82.7966 15.69939103  3396
STARLINK-6325           
1 56789U 23078Y   23172.58376215  .00019043  00000+0  15973-3 0  9991
2 56789  70.0008 353.3886 0003806 274.1331  85.9430 15.69930459  4066
STARLINK-6345           
1 56790U 23078Z   23172.58491999  .00029504  00000+0  24608-3 0  9998
2 56790  70.0006 353.3935 0003853 274.2488  85.8267 15.69941241  3390
STARLINK-5977           
1 56791U 23078AA  23172.58408004  .00016059  00000+0  13507-3 0  9991
2 56791  70.0012 353.3879 0003771 275.7839  84.2927 15.69921948  3398
STARLINK-6046           
1 56792U 23078AB  23172.58460455  .00039569  00000+0  32919-3 0  9999
2 56792  70.0009 353.3900 0004005 278.4351  81.6390 15.69929026  3390
STARLINK-6052           
1 56793U 23078AC  23172.58323453  .00019627  00000+0  16455-3 0  9996
2 56793  70.0008 353.3852 0003439 273.3448  86.7355 15.69933151  3398
STARLINK-6060           
1 56794U 23078AD  23172.58334491 -.00078011  00000+0 -65165-3 0  9997
2 56794  70.0005 353.3938 0003597 268.4325  86.8933 15.69974084  1307
STARLINK-6061           
1 56795U 23078AE  23172.58260207  .00010359  00000+0  87811-4 0  9993
2 56795  70.0010 353.3825 0003679 272.1493  87.9281 15.69923701  3397
STARLINK-6049           
1 56796U 23078AF  23172.58439388  .00026277  00000+0  21949-3 0  9997
2 56796  70.0009 353.3901 0003649 270.3868  89.6909 15.69937086  3391
STARLINK-6058           
1 56797U 23078AG  23172.58344264  .00046489  00000+0  38591-3 0  9994
2 56797  70.0013 353.3842 0003523 273.7911  86.2882 15.69945095  3390
STARLINK-6068           
1 56798U 23078AH  23172.58397171  .00022733  00000+0  19022-3 0  9994
2 56798  70.0008 353.3883 0003738 272.2790  87.7978 15.69934867  4069
STARLINK-5953           
1 56799U 23078AJ  23172.58207580  .00021336  00000+0  17870-3 0  9996
2 56799  70.0010 353.3793 0003814 271.5752  88.5007 15.69930345  3392
STARLINK-6036           
1 56800U 23078AK  23172.58386716  .00020008  00000+0  16771-3 0  9992
2 56800  70.0008 353.3885 0003797 272.6293  87.4468 15.69930649  3392
STARLINK-6087           
1 56801U 23078AL  23172.58281425  .00043545  00000+0  36215-3 0  9990
2 56801  70.0009 353.3827 0003481 275.2797  84.8002 15.69915824  3391
STARLINK-6070           
1 56802U 23078AM  23172.58355095  .00041870  00000+0  34813-3 0  9997
2 56802  70.0010 353.3861 0003690 273.8524  86.2250 15.69930755  3397
STARLINK-6029           
1 56803U 23078AN  23172.58302335  .00004761  00000+0  41343-4 0  9992
2 56803  70.0008 353.3837 0003679 270.0717  90.0057 15.69924419  3396
STARLINK-6069           
1 56804U 23078AP  23172.58365656  .00041957  00000+0  34887-3 0  9990
2 56804  70.0009 353.3871 0003682 274.1891  85.8884 15.69928870  4068
STARLINK-6064           
1 56805U 23078AQ  23172.58312877  .00001626  00000+0  15287-4 0  9991
2 56805  70.0006 353.3839 0003701 269.7192  90.3579 15.69924009  3393
STARLINK-6072           
1 56806U 23078AR  23172.58333932  .00021736  00000+0  18199-3 0  9995
2 56806  70.0008 353.3858 0003639 271.4972  88.5807 15.69932896  3399
